{
  "type": "FeatureCollection",
  "features": [
    {
      "type": "Feature",
      "properties": {
        "norad_id": 33924,
        "name": "COSMOS 2251 DEB",
        "group": "cosmos-2251-debris",
        "lat": 67.77866833734868,
        "lon": 21.97251939690012,
        "alt_km": 1363.612025945552,
        "timestamp": "2025-12-27T05:29:39.597407+00:00",
        "meta_object_name": "COSMOS 2251 DEB",
        "meta_object_id": "1993-036ED",
        "meta_epoch": "2025-12-26T18:16:49.524384",
        "meta_mean_motion": 13.50241221,
        "meta_eccentricity": 0.04037531,
        "meta_inclination": 73.9128,
        "meta_ra_of_asc_node": 247.6625,
        "meta_arg_of_pericenter": 280.6355,
        "meta_mean_anomaly": 74.9531,
        "meta_ephemeris_type": 0,
        "meta_classification_type": "U",
        "meta_norad_cat_id": 33924,
        "meta_element_set_no": 999,
        "meta_rev_at_epoch": 82928,
        "meta_bstar": 0.00043318648,
        "meta_mean_motion_dot": 4.35e-06,
        "meta_mean_motion_ddot": 0,
        "tle_line1": "1 33924U 93036ED  25360.76168431  .00000435  00000+0  43319-3 0  9998",
        "tle_line2": "2 33924  73.9128 247.6625 0403753 280.6355  74.9531 13.50241221829285"
      },
      "geometry": {
        "type": "Point",
        "coordinates": [
          21.97251939690012,
          67.77866833734868
        ]
      }
    },
    {
      "type": "Feature",
      "properties": {
        "norad_id": 33928,
        "name": "COSMOS 2251 DEB",
        "group": "cosmos-2251-debris",
        "lat": 42.503402280231704,
        "lon": 40.60763273291935,
        "alt_km": 728.6066231844361,
        "timestamp": "2025-12-27T05:29:39.597417+00:00",
        "meta_object_name": "COSMOS 2251 DEB",
        "meta_object_id": "1993-036EH",
        "meta_epoch": "2025-12-26T11:02:35.371104",
        "meta_mean_motion": 14.47430204,
        "meta_eccentricity": 0.0062099,
        "meta_inclination": 73.9252,
        "meta_ra_of_asc_node": 26.732,
        "meta_arg_of_pericenter": 318.0865,
        "meta_mean_anomaly": 41.5547,
        "meta_ephemeris_type": 0,
        "meta_classification_type": "U",
        "meta_norad_cat_id": 33928,
        "meta_element_set_no": 999,
        "meta_rev_at_epoch": 88843,
        "meta_bstar": 0.00027751,
        "meta_mean_motion_dot": 1.014e-05,
        "meta_mean_motion_ddot": 0,
        "tle_line1": "1 33928U 93036EH  25360.46013161  .00001014  00000+0  27751-3 0  9994",
        "tle_line2": "2 33928  73.9252  26.7320 0062099 318.0865  41.5547 14.47430204888438"
      },
      "geometry": {
        "type": "Point",
        "coordinates": [
          40.60763273291935,
          42.503402280231704
        ]
      }
    },
    {
      "type": "Feature",
      "properties": {
        "norad_id": 33932,
        "name": "COSMOS 2251 DEB",
        "group": "cosmos-2251-debris",
        "lat": 73.95920921130237,
        "lon": 24.502032180847937,
        "alt_km": 754.7134368670231,
        "timestamp": "2025-12-27T05:29:39.597428+00:00",
        "meta_object_name": "COSMOS 2251 DEB",
        "meta_object_id": "1993-036EM",
        "meta_epoch": "2025-12-26T22:23:52.774080",
        "meta_mean_motion": 14.38800385,
        "meta_eccentricity": 0.00360454,
        "meta_inclination": 74.0343,
        "meta_ra_of_asc_node": 289.7392,
        "meta_arg_of_pericenter": 2.6045,
        "meta_mean_anomaly": 357.529,
        "meta_ephemeris_type": 0,
        "meta_classification_type": "U",
        "meta_norad_cat_id": 33932,
        "meta_element_set_no": 999,
        "meta_rev_at_epoch": 88202,
        "meta_bstar": 0.0005511088,
        "meta_mean_motion_dot": 1.681e-05,
        "meta_mean_motion_ddot": 0,
        "tle_line1": "1 33932U 93036EM  25360.93324970  .00001681  00000+0  55111-3 0  9995",
        "tle_line2": "2 33932  74.0343 289.7392 0036045   2.6045 357.5290 14.38800385882029"
      },
      "geometry": {
        "type": "Point",
        "coordinates": [
          24.502032180847937,
          73.95920921130237
        ]
      }
    },
    {
      "type": "Feature",
      "properties": {
        "norad_id": 33933,
        "name": "COSMOS 2251 DEB",
        "group": "cosmos-2251-debris",
        "lat": 22.964151434450354,
        "lon": 40.671577634013296,
        "alt_km": 729.8211648566548,
        "timestamp": "2025-12-27T05:29:39.597438+00:00",
        "meta_object_name": "COSMOS 2251 DEB",
        "meta_object_id": "1993-036EN",
        "meta_epoch": "2025-12-26T09:17:09.227040",
        "meta_mean_motion": 14.33509628,
        "meta_eccentricity": 0.0071065,
        "meta_inclination": 74.0887,
        "meta_ra_of_asc_node": 35.2632,
        "meta_arg_of_pericenter": 39.6174,
        "meta_mean_anomaly": 321.0139,
        "meta_ephemeris_type": 0,
        "meta_classification_type": "U",
        "meta_norad_cat_id": 33933,
        "meta_element_set_no": 999,
        "meta_rev_at_epoch": 87980,
        "meta_bstar": 0.00028229,
        "meta_mean_motion_dot": 7.77e-06,
        "meta_mean_motion_ddot": 0,
        "tle_line1": "1 33933U 93036EN  25360.38691235  .00000777  00000+0  28229-3 0  9991",
        "tle_line2": "2 33933  74.0887  35.2632 0071065  39.6174 321.0139 14.33509628879809"
      },
      "geometry": {
        "type": "Point",
        "coordinates": [
          40.671577634013296,
          22.964151434450354
        ]
      }
    },
    {
      "type": "Feature",
      "properties": {
        "norad_id": 33934,
        "name": "COSMOS 2251 DEB",
        "group": "cosmos-2251-debris",
        "lat": 36.579383117154144,
        "lon": 85.22759314679293,
        "alt_km": 702.5853059922547,
        "timestamp": "2025-12-27T05:29:39.597448+00:00",
        "meta_object_name": "COSMOS 2251 DEB",
        "meta_object_id": "1993-036EP",
        "meta_epoch": "2025-12-26T14:30:37.321632",
        "meta_mean_motion": 14.5921941,
        "meta_eccentricity": 0.0015008,
        "meta_inclination": 74.0378,
        "meta_ra_of_asc_node": 74.1534,
        "meta_arg_of_pericenter": 197.538,
        "meta_mean_anomaly": 162.5269,
        "meta_ephemeris_type": 0,
        "meta_classification_type": "U",
        "meta_norad_cat_id": 33934,
        "meta_element_set_no": 999,
        "meta_rev_at_epoch": 88941,
        "meta_bstar": 0.00087978,
        "meta_mean_motion_dot": 4.13e-05,
        "meta_mean_motion_ddot": 0,
        "tle_line1": "1 33934U 93036EP  25360.60459863  .00004130  00000+0  87978-3 0  9999",
        "tle_line2": "2 33934  74.0378  74.1534 0015008 197.5380 162.5269 14.59219410889411"
      },
      "geometry": {
        "type": "Point",
        "coordinates": [
          85.22759314679293,
          36.579383117154144
        ]
      }
    },
    {
      "type": "Feature",
      "properties": {
        "norad_id": 33936,
        "name": "COSMOS 2251 DEB",
        "group": "cosmos-2251-debris",
        "lat": 24.903123375430816,
        "lon": 17.435646533662524,
        "alt_km": 704.3617503668456,
        "timestamp": "2025-12-27T05:29:39.597458+00:00",
        "meta_object_name": "COSMOS 2251 DEB",
        "meta_object_id": "1993-036ER",
        "meta_epoch": "2025-12-26T17:51:59.177088",
        "meta_mean_motion": 14.6035499,
        "meta_eccentricity": 0.00266026,
        "meta_inclination": 74.0184,
        "meta_ra_of_asc_node": 10.7155,
        "meta_arg_of_pericenter": 162.6817,
        "meta_mean_anomaly": 197.5262,
        "meta_ephemeris_type": 0,
        "meta_classification_type": "U",
        "meta_norad_cat_id": 33936,
        "meta_element_set_no": 999,
        "meta_rev_at_epoch": 89094,
        "meta_bstar": 0.00067311542,
        "meta_mean_motion_dot": 3.243e-05,
        "meta_mean_motion_ddot": 0,
        "tle_line1": "1 33936U 93036ER  25360.74443492  .00003243  00000+0  67312-3 0  9991",
        "tle_line2": "2 33936  74.0184  10.7155 0026602 162.6817 197.5262 14.60354990890949"
      },
      "geometry": {
        "type": "Point",
        "coordinates": [
          17.435646533662524,
          24.903123375430816
        ]
      }
    },
    {
      "type": "Feature",
      "properties": {
        "norad_id": 33938,
        "name": "COSMOS 2251 DEB",
        "group": "cosmos-2251-debris",
        "lat": -69.14879031232587,
        "lon": 48.81500470665791,
        "alt_km": 730.9984972225493,
        "timestamp": "2025-12-27T05:29:39.597469+00:00",
        "meta_object_name": "COSMOS 2251 DEB",
        "meta_object_id": "1993-036ET",
        "meta_epoch": "2025-12-27T00:05:50.320032",
        "meta_mean_motion": 14.46838787,
        "meta_eccentricity": 0.0016796,
        "meta_inclination": 74.0436,
        "meta_ra_of_asc_node": 180.5435,
        "meta_arg_of_pericenter": 261.5611,
        "meta_mean_anomaly": 264.018,
        "meta_ephemeris_type": 0,
        "meta_classification_type": "U",
        "meta_norad_cat_id": 33938,
        "meta_element_set_no": 999,
        "meta_rev_at_epoch": 88606,
        "meta_bstar": 0.00054419077,
        "meta_mean_motion_dot": 1.949e-05,
        "meta_mean_motion_ddot": 0,
        "tle_line1": "1 33938U 93036ET  25361.00405463  .00001949  00000+0  54419-3 0  9994",
        "tle_line2": "2 33938  74.0436 180.5435 0016796 261.5611 264.0180 14.46838787886064"
      },
      "geometry": {
        "type": "Point",
        "coordinates": [
          48.81500470665791,
          -69.14879031232587
        ]
      }
    }
  ]
}